{"type": "FeatureCollection", "features": [ {"type": "Feature", "properties": {"norad_id": 44622, "name": "GAOFEN-10R", "group": "resource", "lat": 18.491534845103065, "lon": 117.7802588420312, "alt_km": 623.7442141604752, "timestamp": "2025-12-13T13:34:34.732421+00:00", "meta": {"OBJECT_NAME": "GAOFEN-10R", "OBJECT_ID": "2019-066A", "EPOCH": "2025-12-12T23:53:45.036960", "MEAN_MOTION": 14.82794171, "ECCENTRICITY": 0.00078706, "INCLINATION": 98.0275, "RA_OF_ASC_NODE": 294.5029, "ARG_OF_PERICENTER": 41.2206, "MEAN_ANOMALY": 318.96, "EPHEMERIS_TYPE": 0, "CLASSIFICATION_TYPE": "U", "NORAD_CAT_ID": 44622, "ELEMENT_SET_NO": 999, "REV_AT_EPOCH": 33478, "BSTAR": 0.00034126891, "MEAN_MOTION_DOT": 2.707e-05, "MEAN_MOTION_DDOT": 0}, "tle": {"line1": "1 44622U 19066A   25346.99566015  .00002707  00000+0  34127-3 0  9996", "line2": "2 44622  98.0275 294.5029 0007870  41.2206 318.9600 14.82794171334785"}}, "geometry": {"type": "Point", "coordinates": [117.7802588420312, 18.491534845103065]}}, {"type": "Feature", "properties": {"norad_id": 44804, "name": "CARTOSAT-3", "group": "resource", "lat": 70.8991613608605, "lon": 24.90929685176773, "alt_km": 491.8595602439682, "timestamp": "2025-12-13T13:34:34.732430+00:00", "meta": {"OBJECT_NAME": "CARTOSAT-3", "OBJECT_ID": "2019-081A", "EPOCH": "2025-12-12T23:01:55.458624", "MEAN_MOTION": 15.19154654, "ECCENTRICITY": 0.00141908, "INCLINATION": 97.4585, "RA_OF_ASC_NODE": 46.5399, "ARG_OF_PERICENTER": 82.6502, "MEAN_ANOMALY": 277.6345, "EPHEMERIS_TYPE": 0, "CLASSIFICATION_TYPE": "U", "NORAD_CAT_ID": 44804, "ELEMENT_SET_NO": 999, "REV_AT_EPOCH": 33519, "BSTAR": 0.00033979238, "MEAN_MOTION_DOT": 7.093e-05, "MEAN_MOTION_DDOT": 0}, "tle": {"line1": "1 44804U 19081A   25346.95966966  .00007093  00000+0  33979-3 0  9997", "line2": "2 44804  97.4585  46.5399 0014190  82.6502 277.6345 15.19154654335190"}}, "geometry": {"type": "Point", "coordinates": [24.90929685176773, 70.8991613608605]}}, {"type": "Feature", "properties": {"norad_id": 44819, "name": "GAOFEN-12 01", "group": "resource", "lat": 60.76824700100511, "lon": -20.377417103698363, "alt_km": 622.2726226591794, "timestamp": "2025-12-13T13:34:34.732438+00:00", "meta": {"OBJECT_NAME": "GAOFEN-12 01", "OBJECT_ID": "2019-082A", "EPOCH": "2025-12-13T00:19:23.725056", "MEAN_MOTION": 14.80657789, "ECCENTRICITY": 0.00013431, "INCLINATION": 97.8126, "RA_OF_ASC_NODE": 353.2873, "ARG_OF_PERICENTER": 231.6082, "MEAN_ANOMALY": 128.501, "EPHEMERIS_TYPE": 0, "CLASSIFICATION_TYPE": "U", "NORAD_CAT_ID": 44819, "ELEMENT_SET_NO": 999, "REV_AT_EPOCH": 32654, "BSTAR": 0.00011122527, "MEAN_MOTION_DOT": 8.04e-06, "MEAN_MOTION_DDOT": 0}, "tle": {"line1": "1 44819U 19082A   25347.01346904  .00000804  00000+0  11123-3 0  9996", "line2": "2 44819  97.8126 353.2873 0001343 231.6082 128.5010 14.80657789326547"}}, "geometry": {"type": "Point", "coordinates": [-20.377417103698363, 60.76824700100511]}}, {"type": "Feature", "properties": {"norad_id": 44873, "name": "CSG-1", "group": "resource", "lat": 2.6188415089969634, "lon": -10.759727611589264, "alt_km": 625.2444168923794, "timestamp": "2025-12-13T13:34:34.732448+00:00", "meta": {"OBJECT_NAME": "CSG-1", "OBJECT_ID": "2019-092A", "EPOCH": "2025-12-12T23:49:02.636832", "MEAN_MOTION": 14.82164953, "ECCENTRICITY": 0.00014479, "INCLINATION": 97.881, "RA_OF_ASC_NODE": 168.3128, "ARG_OF_PERICENTER": 84.9752, "MEAN_ANOMALY": 275.1626, "EPHEMERIS_TYPE": 0, "CLASSIFICATION_TYPE": "U", "NORAD_CAT_ID": 44873, "ELEMENT_SET_NO": 999, "REV_AT_EPOCH": 32389, "BSTAR": 0.00012938447, "MEAN_MOTION_DOT": 9.78e-06, "MEAN_MOTION_DDOT": 0}, "tle": {"line1": "1 44873U 19092A   25346.99239163  .00000978  00000+0  12938-3 0  9998", "line2": "2 44873  97.8810 168.3128 0001447  84.9752 275.1626 14.82164953323898"}}, "geometry": {"type": "Point", "coordinates": [-10.759727611589264, 2.6188415089969634]}}, {"type": "Feature", "properties": {"norad_id": 46277, "name": "NEMO-HD", "group": "resource", "lat": 30.955920575086374, "lon": -128.98513119456396, "alt_km": 443.5914043403409, "timestamp": "2025-12-13T13:34:34.732456+00:00", "meta": {"OBJECT_NAME": "NEMO-HD", "OBJECT_ID": "2020-061F", "EPOCH": "2025-12-13T00:27:36.941184", "MEAN_MOTION": 15.40335125, "ECCENTRICITY": 0.00018528, "INCLINATION": 97.2215, "RA_OF_ASC_NODE": 46.1133, "ARG_OF_PERICENTER": 56.2525, "MEAN_ANOMALY": 303.8898, "EPHEMERIS_TYPE": 0, "CLASSIFICATION_TYPE": "U", "NORAD_CAT_ID": 46277, "ELEMENT_SET_NO": 999, "REV_AT_EPOCH": 29328, "BSTAR": 0.00037624058, "MEAN_MOTION_DOT": 0.00015107, "MEAN_MOTION_DDOT": 0}, "tle": {"line1": "1 46277U 20061F   25347.01917756  .00015107  00000+0  37624-3 0  9990", "line2": "2 46277  97.2215  46.1133 0001852  56.2525 303.8898 15.40335125293285"}}, "geometry": {"type": "Point", "coordinates": [-128.98513119456396, 30.955920575086374]}}, {"type": "Feature", "properties": {"norad_id": 46984, "name": "SENTINEL-6A", "group": "resource", "lat": -46.50293110316561, "lon": 132.64785818284008, "alt_km": 1338.9028207176898, "timestamp": "2025-12-13T13:34:34.732466+00:00", "meta": {"OBJECT_NAME": "SENTINEL-6A", "OBJECT_ID": "2020-086A", "EPOCH": "2025-12-12T20:59:07.665792", "MEAN_MOTION": 12.80930623, "ECCENTRICITY": 0.0007733, "INCLINATION": 66.0389, "RA_OF_ASC_NODE": 162.0284, "ARG_OF_PERICENTER": 269.2327, "MEAN_ANOMALY": 90.7802, "EPHEMERIS_TYPE": 0, "CLASSIFICATION_TYPE": "U", "NORAD_CAT_ID": 46984, "ELEMENT_SET_NO": 999, "REV_AT_EPOCH": 23646, "BSTAR": 0.00013400305, "MEAN_MOTION_DOT": -3e-07, "MEAN_MOTION_DDOT": 0}, "tle": {"line1": "1 46984U 20086A   25346.87439428 -.00000030  00000+0  13400-3 0  9996", "line2": "2 46984  66.0389 162.0284 0007733 269.2327  90.7802 12.80930623236460"}}, "geometry": {"type": "Point", "coordinates": [132.64785818284008, -46.50293110316561]}}, {"type": "Feature", "properties": {"norad_id": 48079, "name": "GAOFEN-12 02", "group": "resource", "lat": 71.3625623168857, "lon": -43.027276782296084, "alt_km": 618.0635422550295, "timestamp": "2025-12-13T13:34:34.732474+00:00", "meta": {"OBJECT_NAME": "GAOFEN-12 02", "OBJECT_ID": "2021-026A", "EPOCH": "2025-12-13T00:16:21.073728", "MEAN_MOTION": 14.80675726, "ECCENTRICITY": 0.00035472, "INCLINATION": 97.9852, "RA_OF_ASC_NODE": 341.0164, "ARG_OF_PERICENTER": 100.7231, "MEAN_ANOMALY": 259.4381, "EPHEMERIS_TYPE": 0, "CLASSIFICATION_TYPE": "U", "NORAD_CAT_ID": 48079, "ELEMENT_SET_NO": 999, "REV_AT_EPOCH": 25421, "BSTAR": 0.00011599243, "MEAN_MOTION_DOT": 8.39e-06, "MEAN_MOTION_DDOT": 0}, "tle": {"line1": "1 48079U 21026A   25347.01135502  .00000839  00000+0  11599-3 0  9994", "line2": "2 48079  97.9852 341.0164 0003547 100.7231 259.4381 14.80675726254214"}}, "geometry": {"type": "Point", "coordinates": [-43.027276782296084, 71.3625623168857]}}, {"type": "Feature", "properties": {"norad_id": 48268, "name": "PLEIADES NEO 3", "group": "resource", "lat": 36.40179320930707, "lon": -114.13400144427546, "alt_km": 620.949663224229, "timestamp": "2025-12-13T13:34:34.732483+00:00", "meta": {"OBJECT_NAME": "PLEIADES NEO 3", "OBJECT_ID": "2021-034A", "EPOCH": "2025-12-12T23:57:59.263776", "MEAN_MOTION": 14.81670095, "ECCENTRICITY": 0.00013436, "INCLINATION": 97.894, "RA_OF_ASC_NODE": 59.4355, "ARG_OF_PERICENTER": 93.2352, "MEAN_ANOMALY": 266.9014, "EPHEMERIS_TYPE": 0, "CLASSIFICATION_TYPE": "U", "NORAD_CAT_ID": 48268, "ELEMENT_SET_NO": 999, "REV_AT_EPOCH": 25008, "BSTAR": 0.00012380688, "MEAN_MOTION_DOT": 9.22e-06, "MEAN_MOTION_DDOT": 0}, "tle": {"line1": "1 48268U 21034A   25346.99860259  .00000922  00000+0  12381-3 0  9996", "line2": "2 48268  97.8940  59.4355 0001343  93.2352 266.9014 14.81670095250087"}}, "geometry": {"type": "Point", "coordinates": [-114.13400144427546, 36.40179320930707]}}, {"type": "Feature", "properties": {"norad_id": 49070, "name": "PLEIADES NEO 4", "group": "resource", "lat": -36.53243893936392, "lon": 65.89041622225716, "alt_km": 630.8998739112503, "timestamp": "2025-12-13T13:34:34.732492+00:00", "meta": {"OBJECT_NAME": "PLEIADES NEO 4", "OBJECT_ID": "2021-073E", "EPOCH": "2025-12-12T08:34:07.569120", "MEAN_MOTION": 14.81676895, "ECCENTRICITY": 0.00012379, "INCLINATION": 97.8941, "RA_OF_ASC_NODE": 58.7994, "ARG_OF_PERICENTER": 92.1719, "MEAN_ANOMALY": 267.9635, "EPHEMERIS_TYPE": 0, "CLASSIFICATION_TYPE": "U", "NORAD_CAT_ID": 49070, "ELEMENT_SET_NO": 999, "REV_AT_EPOCH": 23370, "BSTAR": 3.8133e-06, "MEAN_MOTION_DOT": -2.2e-07, "MEAN_MOTION_DDOT": 0}, "tle": {"line1": "1 49070U 21073E   25346.35703205 -.00000022  00000+0  38133-5 0  9995", "line2": "2 49070  97.8941  58.7994 0001237  92.1719 267.9635 14.81676895233702"}}, "geometry": {"type": "Point", "coordinates": [65.89041622225716, -36.53243893936392]}}, {"type": "Feature", "properties": {"norad_id": 49260, "name": "LANDSAT 9", "group": "resource", "lat": -81.21875833049239, "lon": 166.505174452701, "alt_km": 710.7319910505066, "timestamp": "2025-12-13T13:34:34.732501+00:00", "meta": {"OBJECT_NAME": "LANDSAT 9", "OBJECT_ID": "2021-088A", "EPOCH": "2025-12-12T18:13:34.427136", "MEAN_MOTION": 14.57098196, "ECCENTRICITY": 0.00011742, "INCLINATION": 98.2095, "RA_OF_ASC_NODE": 54.8703, "ARG_OF_PERICENTER": 89.1031, "MEAN_ANOMALY": 271.0302, "EPHEMERIS_TYPE": 0, "CLASSIFICATION_TYPE": "U", "NORAD_CAT_ID": 49260, "ELEMENT_SET_NO": 999, "REV_AT_EPOCH": 22385, "BSTAR": 0.00017250756, "MEAN_MOTION_DOT": 7.32e-06, "MEAN_MOTION_DDOT": 0}, "tle": {"line1": "1 49260U 21088A   25346.75942624  .00000732  00000+0  17251-3 0  9999", "line2": "2 49260  98.2095  54.8703 0001174  89.1031 271.0302 14.57098196223853"}}, "geometry": {"type": "Point", "coordinates": [166.505174452701, -81.21875833049239]}}]}